0 OCEANSAT 2
1 35931U 09051A   13282.71016701  .00000316  00000-0  91123-4 0  4686
2 35931 098.2789 016.7065 0002725 046.4858 074.4344 14.50869872214218
0 OCEANSAT 2
1 35931U 09051A   13284.14695912  .00000435  00000-0  12135-3 0  4690
2 35931 098.2791 018.1201 0002696 044.3383 016.7308 14.50871425214425
0 OCEANSAT 2
1 35931U 09051A   13285.38542476  .00000347  00000-0  99172-4 0  4704
2 35931 098.2793 019.3387 0002625 041.6222 004.3238 14.50872343214604
0 OCEANSAT 2
1 35931U 09051A   13286.84590609  .00000441  00000-0  12285-3 0  4712
2 35931 098.2793 020.7758 0002523 037.4594 072.3086 14.50873059214818
0 OCEANSAT 2
1 35931U 09051A   13287.88577701  .00000633  00000-0  17168-3 0  4724
2 35931 098.2794 021.7990 0002465 034.2284 103.7447 14.50875181214968
0 OCEANSAT 2
1 35931U 09051A   13289.11873104  .00000523  00000-0  14370-3 0  4739
2 35931 098.2793 023.0125 0002382 030.6084 063.4895 14.50877085215143
0 OCEANSAT 2
1 35931U 09051A   13290.14681897  .00000518  00000-0  14231-3 0  4741
2 35931 098.2792 024.0242 0002322 027.7966 033.0132 14.50878205215291
0 OCEANSAT 2
1 35931U 09051A   13291.18071324  .00000535  00000-0  14669-3 0  4759
2 35931 098.2790 025.0417 0002253 024.5001 033.3363 14.50879459215440
0 OCEANSAT 2
1 35931U 09051A   13292.49075574  .00000558  00000-0  15262-3 0  4761
2 35931 098.2789 026.3309 0002175 021.5138 034.8758 14.50880745215638
0 OCEANSAT 2
1 35931U 09051A   13293.81144015  .00000588  00000-0  16014-3 0  4775
2 35931 098.2788 027.6304 0002089 017.0998 093.4010 14.50882101215825
0 OCEANSAT 2
1 35931U 09051A   13295.05186510  .00000605  00000-0  16435-3 0  4787
2 35931 098.2788 028.8510 0002010 013.1911 092.4658 14.50883820216000
0 OCEANSAT 2
1 35931U 09051A   13296.14673065  .00000592  00000-0  16123-3 0  4794
2 35931 098.2788 029.9282 0001944 009.8787 051.1018 14.50885833216161
